[{"OBJECT_NAME":"ASTROCAST-0404","OBJECT_ID":"2023-001DH","EPOCH":"2026-03-09T19:24:02.920896","MEAN_MOTION":15.26309833,"ECCENTRICITY":0.00068478,"INCLINATION":97.5646,"RA_OF_ASC_NODE":161.5422,"ARG_OF_PERICENTER":1.1317,"MEAN_ANOMALY":358.9936,"EPHEMERIS_TYPE":0,"CLASSIFICATION_TYPE":"U","NORAD_CAT_ID":55112,"ELEMENT_SET_NO":999,"REV_AT_EPOCH":12936,"BSTAR":0.00034435555,"MEAN_MOTION_DOT":8.87e-5,"MEAN_MOTION_DDOT":0},{"OBJECT_NAME":"STARLINK-36433","OBJECT_ID":"2026-012J","EPOCH":"2026-03-09T01:06:17.643456","MEAN_MOTION":15.27575696,"ECCENTRICITY":0.00014614,"INCLINATION":42.9984,"RA_OF_ASC_NODE":318.0099,"ARG_OF_PERICENTER":280.9985,"MEAN_ANOMALY":79.0702,"EPHEMERIS_TYPE":0,"CLASSIFICATION_TYPE":"U","NORAD_CAT_ID":67501,"ELEMENT_SET_NO":999,"REV_AT_EPOCH":766,"BSTAR":0.0015316251,"MEAN_MOTION_DOT":0.00042121,"MEAN_MOTION_DDOT":0}]
